{
  "type": "FeatureCollection",
  "features": [
    {
      "type": "Feature",
      "properties": {
        "norad_id": 55268,
        "name": "GPS BIII-6  (PRN 28)",
        "group": "gnss",
        "lat": -43.996692564957335,
        "lon": 113.38590706021232,
        "alt_km": 20182.387289381157,
        "timestamp": "2025-12-14T09:36:23.280849+00:00",
        "meta_object_name": "GPS BIII-6  (PRN 28)",
        "meta_object_id": "2023-009A",
        "meta_epoch": "2025-12-13T12:37:03.021024",
        "meta_mean_motion": 2.00555696,
        "meta_eccentricity": 0.00037118,
        "meta_inclination": 55.1051,
        "meta_ra_of_asc_node": 155.8142,
        "meta_arg_of_pericenter": 357.4368,
        "meta_mean_anomaly": 33.2544,
        "meta_ephemeris_type": 0,
        "meta_classification_type": "U",
        "meta_norad_cat_id": 55268,
        "meta_element_set_no": 999,
        "meta_rev_at_epoch": 2152,
        "meta_bstar": 0,
        "meta_mean_motion_dot": 1e-06,
        "meta_mean_motion_ddot": 0,
        "tle_line1": "1 55268U 23009A   25347.52572941  .00000100  00000+0  00000+0 0  9995",
        "tle_line2": "2 55268  55.1051 155.8142 0003711 357.4368  33.2544  2.00555696 21528"
      },
      "geometry": {
        "type": "Point",
        "coordinates": [
          113.38590706021232,
          -43.996692564957335
        ]
      }
    },
    {
      "type": "Feature",
      "properties": {
        "norad_id": 56564,
        "name": "BEIDOU-3 G4 (C62)",
        "group": "gnss",
        "lat": 0.82553899856716,
        "lon": 27.449801454821557,
        "alt_km": 35795.949688365785,
        "timestamp": "2025-12-14T09:36:23.280863+00:00",
        "meta_object_name": "BEIDOU-3 G4 (C62)",
        "meta_object_id": "2023-066A",
        "meta_epoch": "2025-12-13T14:12:38.887200",
        "meta_mean_motion": 1.00271694,
        "meta_eccentricity": 0.00028636,
        "meta_inclination": 0.8127,
        "meta_ra_of_asc_node": 302.121,
        "meta_arg_of_pericenter": 231.0202,
        "meta_mean_anomaly": 282.6075,
        "meta_ephemeris_type": 0,
        "meta_classification_type": "U",
        "meta_norad_cat_id": 56564,
        "meta_element_set_no": 999,
        "meta_rev_at_epoch": 953,
        "meta_bstar": 0,
        "meta_mean_motion_dot": -9.6e-07,
        "meta_mean_motion_ddot": 0,
        "tle_line1": "1 56564U 23066A   25347.59211675 -.00000096  00000+0  00000+0 0  9994",
        "tle_line2": "2 56564   0.8127 302.1210 0002863 231.0202 282.6075  1.00271694  9531"
      },
      "geometry": {
        "type": "Point",
        "coordinates": [
          27.449801454821557,
          0.82553899856716
        ]
      }
    },
    {
      "type": "Feature",
      "properties": {
        "norad_id": 56759,
        "name": "NVS-01 (IRNSS-1J)",
        "group": "gnss",
        "lat": 2.530256003186152,
        "lon": -3.0072369090024744,
        "alt_km": 35784.816253342375,
        "timestamp": "2025-12-14T09:36:23.280875+00:00",
        "meta_object_name": "NVS-01 (IRNSS-1J)",
        "meta_object_id": "2023-076A",
        "meta_epoch": "2025-12-13T15:46:37.386624",
        "meta_mean_motion": 1.00277142,
        "meta_eccentricity": 0.00089317,
        "meta_inclination": 2.6156,
        "meta_ra_of_asc_node": 251.5627,
        "meta_arg_of_pericenter": 14.7382,
        "meta_mean_anomaly": 182.4002,
        "meta_ephemeris_type": 0,
        "meta_classification_type": "U",
        "meta_norad_cat_id": 56759,
        "meta_element_set_no": 999,
        "meta_rev_at_epoch": 925,
        "meta_bstar": 0,
        "meta_mean_motion_dot": -3.18e-06,
        "meta_mean_motion_ddot": 0,
        "tle_line1": "1 56759U 23076A   25347.65737716 -.00000318  00000+0  00000+0 0  9994",
        "tle_line2": "2 56759   2.6156 251.5627 0008931  14.7382 182.4002  1.00277142  9255"
      },
      "geometry": {
        "type": "Point",
        "coordinates": [
          -3.0072369090024744,
          2.530256003186152
        ]
      }
    },
    {
      "type": "Feature",
      "properties": {
        "norad_id": 57517,
        "name": "COSMOS 2569 (703K)",
        "group": "gnss",
        "lat": 23.598077029204266,
        "lon": 90.49962377942671,
        "alt_km": 19131.428390388373,
        "timestamp": "2025-12-14T09:36:23.280887+00:00",
        "meta_object_name": "COSMOS 2569 (703K)",
        "meta_object_id": "2023-114A",
        "meta_epoch": "2025-12-12T23:00:06.356160",
        "meta_mean_motion": 2.13103989,
        "meta_eccentricity": 0.00105383,
        "meta_inclination": 65.1943,
        "meta_ra_of_asc_node": 78.9061,
        "meta_arg_of_pericenter": 287.004,
        "meta_mean_anomaly": 72.8956,
        "meta_ephemeris_type": 0,
        "meta_classification_type": "U",
        "meta_norad_cat_id": 57517,
        "meta_element_set_no": 999,
        "meta_rev_at_epoch": 1829,
        "meta_bstar": 0,
        "meta_mean_motion_dot": -4.5e-07,
        "meta_mean_motion_ddot": 0,
        "tle_line1": "1 57517U 23114A   25346.95840690 -.00000045  00000+0  00000+0 0  9995",
        "tle_line2": "2 57517  65.1943  78.9061 0010538 287.0040  72.8956  2.13103989 18297"
      },
      "geometry": {
        "type": "Point",
        "coordinates": [
          90.49962377942671,
          23.598077029204266
        ]
      }
    },
    {
      "type": "Feature",
      "properties": {
        "norad_id": 58654,
        "name": "BEIDOU-3 M28 (C50)",
        "group": "gnss",
        "lat": -42.88676269778785,
        "lon": -71.96519415413093,
        "alt_km": 21527.743623461094,
        "timestamp": "2025-12-14T09:36:23.280898+00:00",
        "meta_object_name": "BEIDOU-3 M28 (C50)",
        "meta_object_id": "2023-207A",
        "meta_epoch": "2025-12-11T21:37:33.991968",
        "meta_mean_motion": 1.86229651,
        "meta_eccentricity": 0.00023562,
        "meta_inclination": 55.5838,
        "meta_ra_of_asc_node": 68.6297,
        "meta_arg_of_pericenter": 269.3243,
        "meta_mean_anomaly": 90.6691,
        "meta_ephemeris_type": 0,
        "meta_classification_type": "U",
        "meta_norad_cat_id": 58654,
        "meta_element_set_no": 999,
        "meta_rev_at_epoch": 1335,
        "meta_bstar": 0,
        "meta_mean_motion_dot": -6.9e-07,
        "meta_mean_motion_ddot": 0,
        "tle_line1": "1 58654U 23207A   25345.90108787 -.00000069  00000+0  00000+0 0  9995",
        "tle_line2": "2 58654  55.5838  68.6297 0002356 269.3243  90.6691  1.86229651 13350"
      },
      "geometry": {
        "type": "Point",
        "coordinates": [
          -71.96519415413093,
          -42.88676269778785
        ]
      }
    },
    {
      "type": "Feature",
      "properties": {
        "norad_id": 58655,
        "name": "BEIDOU-3 M26 (C48)",
        "group": "gnss",
        "lat": 9.260067017626278,
        "lon": 74.94619707041845,
        "alt_km": 21531.67016026831,
        "timestamp": "2025-12-14T09:36:23.280909+00:00",
        "meta_object_name": "BEIDOU-3 M26 (C48)",
        "meta_object_id": "2023-207B",
        "meta_epoch": "2025-12-13T07:25:48.468864",
        "meta_mean_motion": 1.86231261,
        "meta_eccentricity": 0.00038294,
        "meta_inclination": 55.587,
        "meta_ra_of_asc_node": 68.5683,
        "meta_arg_of_pericenter": 255.9601,
        "meta_mean_anomaly": 104.0159,
        "meta_ephemeris_type": 0,
        "meta_classification_type": "U",
        "meta_norad_cat_id": 58655,
        "meta_element_set_no": 999,
        "meta_rev_at_epoch": 1336,
        "meta_bstar": 0,
        "meta_mean_motion_dot": -7.9e-07,
        "meta_mean_motion_ddot": 0,
        "tle_line1": "1 58655U 23207B   25347.30958876 -.00000079  00000+0  00000+0 0  9995",
        "tle_line2": "2 58655  55.5870  68.5683 0003829 255.9601 104.0159  1.86231261 13360"
      },
      "geometry": {
        "type": "Point",
        "coordinates": [
          74.94619707041845,
          9.260067017626278
        ]
      }
    },
    {
      "type": "Feature",
      "properties": {
        "norad_id": 59598,
        "name": "GSAT0225 (GALILEO 29)",
        "group": "gnss",
        "lat": -29.766156955467846,
        "lon": -50.166164404209994,
        "alt_km": 23221.321583223973,
        "timestamp": "2025-12-14T09:36:23.280923+00:00",
        "meta_object_name": "GSAT0225 (GALILEO 29)",
        "meta_object_id": "2024-079A",
        "meta_epoch": "2025-12-10T12:47:07.958400",
        "meta_mean_motion": 1.70474727,
        "meta_eccentricity": 0.00020453,
        "meta_inclination": 55.0006,
        "meta_ra_of_asc_node": 106.3566,
        "meta_arg_of_pericenter": 176.2356,
        "meta_mean_anomaly": 187.363,
        "meta_ephemeris_type": 0,
        "meta_classification_type": "U",
        "meta_norad_cat_id": 59598,
        "meta_element_set_no": 999,
        "meta_rev_at_epoch": 1010,
        "meta_bstar": 0,
        "meta_mean_motion_dot": 1e-07,
        "meta_mean_motion_ddot": 0,
        "tle_line1": "1 59598U 24079A   25344.53273100  .00000010  00000+0  00000+0 0  9996",
        "tle_line2": "2 59598  55.0006 106.3566 0002045 176.2356 187.3630  1.70474727 10101"
      },
      "geometry": {
        "type": "Point",
        "coordinates": [
          -50.166164404209994,
          -29.766156955467846
        ]
      }
    }
  ]
}